<?xml version="1.0" encoding="UTF-8"?>
<ndm xmlns:xsi="http://www.w3.org/2001/XMLSchema-instance" xsi:noNamespaceSchemaLocation="https://sanaregistry.org/r/ndmxml_unqualified/ndmxml-2.0.0-master-2.0.xsd">
<omm id="CCSDS_OMM_VERS" version="2.0">
<header><CREATION_DATE/><ORIGINATOR/></header><body><segment><metadata><OBJECT_NAME>ONEWEB-0549</OBJECT_NAME><OBJECT_ID>2023-043F</OBJECT_ID><CENTER_NAME>EARTH</CENTER_NAME><REF_FRAME>TEME</REF_FRAME><TIME_SYSTEM>UTC</TIME_SYSTEM><MEAN_ELEMENT_THEORY>SGP4</MEAN_ELEMENT_THEORY></metadata><data><meanElements><EPOCH>2025-04-22T12:29:01.392864</EPOCH><MEAN_MOTION>13.21826217</MEAN_MOTION><ECCENTRICITY>.000151</ECCENTRICITY><INCLINATION>87.9272</INCLINATION><RA_OF_ASC_NODE>327.8780</RA_OF_ASC_NODE><ARG_OF_PERICENTER>82.6887</ARG_OF_PERICENTER><MEAN_ANOMALY>277.4418</MEAN_ANOMALY></meanElements><tleParameters><EPHEMERIS_TYPE>0</EPHEMERIS_TYPE><CLASSIFICATION_TYPE>U</CLASSIFICATION_TYPE><NORAD_CAT_ID>56051</NORAD_CAT_ID><ELEMENT_SET_NO>999</ELEMENT_SET_NO><REV_AT_EPOCH>10265</REV_AT_EPOCH><BSTAR>.35009E-3</BSTAR><MEAN_MOTION_DOT>.158E-5</MEAN_MOTION_DOT><MEAN_MOTION_DDOT>0</MEAN_MOTION_DDOT></tleParameters></data></segment></body></omm>
<omm id="CCSDS_OMM_VERS" version="2.0">
<header><CREATION_DATE/><ORIGINATOR/></header><body><segment><metadata><OBJECT_NAME>ONEWEB-0550</OBJECT_NAME><OBJECT_ID>2023-043G</OBJECT_ID><CENTER_NAME>EARTH</CENTER_NAME><REF_FRAME>TEME</REF_FRAME><TIME_SYSTEM>UTC</TIME_SYSTEM><MEAN_ELEMENT_THEORY>SGP4</MEAN_ELEMENT_THEORY></metadata><data><meanElements><EPOCH>2025-04-22T12:10:51.635712</EPOCH><MEAN_MOTION>13.21825197</MEAN_MOTION><ECCENTRICITY>.0001938</ECCENTRICITY><INCLINATION>87.9275</INCLINATION><RA_OF_ASC_NODE>327.8764</RA_OF_ASC_NODE><ARG_OF_PERICENTER>84.4563</ARG_OF_PERICENTER><MEAN_ANOMALY>275.6792</MEAN_ANOMALY></meanElements><tleParameters><EPHEMERIS_TYPE>0</EPHEMERIS_TYPE><CLASSIFICATION_TYPE>U</CLASSIFICATION_TYPE><NORAD_CAT_ID>56052</NORAD_CAT_ID><ELEMENT_SET_NO>999</ELEMENT_SET_NO><REV_AT_EPOCH>10265</REV_AT_EPOCH><BSTAR>.13098E-3</BSTAR><MEAN_MOTION_DOT>.67E-6</MEAN_MOTION_DOT><MEAN_MOTION_DDOT>0</MEAN_MOTION_DDOT></tleParameters></data></segment></body></omm>
<omm id="CCSDS_OMM_VERS" version="2.0">
<header><CREATION_DATE/><ORIGINATOR/></header><body><segment><metadata><OBJECT_NAME>ONEWEB-0551</OBJECT_NAME><OBJECT_ID>2023-043H</OBJECT_ID><CENTER_NAME>EARTH</CENTER_NAME><REF_FRAME>TEME</REF_FRAME><TIME_SYSTEM>UTC</TIME_SYSTEM><MEAN_ELEMENT_THEORY>SGP4</MEAN_ELEMENT_THEORY></metadata><data><meanElements><EPOCH>2025-04-22T15:13:20.358624</EPOCH><MEAN_MOTION>13.15547385</MEAN_MOTION><ECCENTRICITY>.0001583</ECCENTRICITY><INCLINATION>87.9095</INCLINATION><RA_OF_ASC_NODE>343.0487</RA_OF_ASC_NODE><ARG_OF_PERICENTER>76.8248</ARG_OF_PERICENTER><MEAN_ANOMALY>283.3058</MEAN_ANOMALY></meanElements><tleParameters><EPHEMERIS_TYPE>0</EPHEMERIS_TYPE><CLASSIFICATION_TYPE>U</CLASSIFICATION_TYPE><NORAD_CAT_ID>56053</NORAD_CAT_ID><ELEMENT_SET_NO>999</ELEMENT_SET_NO><REV_AT_EPOCH>10110</REV_AT_EPOCH><BSTAR>.41919E-3</BSTAR><MEAN_MOTION_DOT>.171E-5</MEAN_MOTION_DOT><MEAN_MOTION_DDOT>0</MEAN_MOTION_DDOT></tleParameters></data></segment></body></omm>
<omm id="CCSDS_OMM_VERS" version="2.0">
<header><CREATION_DATE/><ORIGINATOR/></header><body><segment><metadata><OBJECT_NAME>ONEWEB-0552</OBJECT_NAME><OBJECT_ID>2023-043J</OBJECT_ID><CENTER_NAME>EARTH</CENTER_NAME><REF_FRAME>TEME</REF_FRAME><TIME_SYSTEM>UTC</TIME_SYSTEM><MEAN_ELEMENT_THEORY>SGP4</MEAN_ELEMENT_THEORY></metadata><data><meanElements><EPOCH>2025-04-22T12:01:46.214112</EPOCH><MEAN_MOTION>13.21826096</MEAN_MOTION><ECCENTRICITY>.0001602</ECCENTRICITY><INCLINATION>87.9279</INCLINATION><RA_OF_ASC_NODE>327.8857</RA_OF_ASC_NODE><ARG_OF_PERICENTER>77.8848</ARG_OF_PERICENTER><MEAN_ANOMALY>282.2466</MEAN_ANOMALY></meanElements><tleParameters><EPHEMERIS_TYPE>0</EPHEMERIS_TYPE><CLASSIFICATION_TYPE>U</CLASSIFICATION_TYPE><NORAD_CAT_ID>56054</NORAD_CAT_ID><ELEMENT_SET_NO>999</ELEMENT_SET_NO><REV_AT_EPOCH>10265</REV_AT_EPOCH><BSTAR>.42122E-4</BSTAR><MEAN_MOTION_DOT>.3E-6</MEAN_MOTION_DOT><MEAN_MOTION_DDOT>0</MEAN_MOTION_DDOT></tleParameters></data></segment></body></omm>
<omm id="CCSDS_OMM_VERS" version="2.0">
<header><CREATION_DATE/><ORIGINATOR/></header><body><segment><metadata><OBJECT_NAME>ONEWEB-0553</OBJECT_NAME><OBJECT_ID>2023-043K</OBJECT_ID><CENTER_NAME>EARTH</CENTER_NAME><REF_FRAME>TEME</REF_FRAME><TIME_SYSTEM>UTC</TIME_SYSTEM><MEAN_ELEMENT_THEORY>SGP4</MEAN_ELEMENT_THEORY></metadata><data><meanElements><EPOCH>2025-04-22T12:55:49.957824</EPOCH><MEAN_MOTION>13.16595956</MEAN_MOTION><ECCENTRICITY>.0002095</ECCENTRICITY><INCLINATION>87.9025</INCLINATION><RA_OF_ASC_NODE>312.6310</RA_OF_ASC_NODE><ARG_OF_PERICENTER>97.0527</ARG_OF_PERICENTER><MEAN_ANOMALY>263.0842</MEAN_ANOMALY></meanElements><tleParameters><EPHEMERIS_TYPE>0</EPHEMERIS_TYPE><CLASSIFICATION_TYPE>U</CLASSIFICATION_TYPE><NORAD_CAT_ID>56055</NORAD_CAT_ID><ELEMENT_SET_NO>999</ELEMENT_SET_NO><REV_AT_EPOCH>10362</REV_AT_EPOCH><BSTAR>.27399E-3</BSTAR><MEAN_MOTION_DOT>.118E-5</MEAN_MOTION_DOT><MEAN_MOTION_DDOT>0</MEAN_MOTION_DDOT></tleParameters></data></segment></body></omm>
<omm id="CCSDS_OMM_VERS" version="2.0">
<header><CREATION_DATE/><ORIGINATOR/></header><body><segment><metadata><OBJECT_NAME>ONEWEB-0554</OBJECT_NAME><OBJECT_ID>2023-043L</OBJECT_ID><CENTER_NAME>EARTH</CENTER_NAME><REF_FRAME>TEME</REF_FRAME><TIME_SYSTEM>UTC</TIME_SYSTEM><MEAN_ELEMENT_THEORY>SGP4</MEAN_ELEMENT_THEORY></metadata><data><meanElements><EPOCH>2025-04-22T12:37:33.528864</EPOCH><MEAN_MOTION>13.16595729</MEAN_MOTION><ECCENTRICITY>.0002026</ECCENTRICITY><INCLINATION>87.9026</INCLINATION><RA_OF_ASC_NODE>312.6626</RA_OF_ASC_NODE><ARG_OF_PERICENTER>85.7912</ARG_OF_PERICENTER><MEAN_ANOMALY>274.3451</MEAN_ANOMALY></meanElements><tleParameters><EPHEMERIS_TYPE>0</EPHEMERIS_TYPE><CLASSIFICATION_TYPE>U</CLASSIFICATION_TYPE><NORAD_CAT_ID>56056</NORAD_CAT_ID><ELEMENT_SET_NO>999</ELEMENT_SET_NO><REV_AT_EPOCH>10360</REV_AT_EPOCH><BSTAR>.87145E-4</BSTAR><MEAN_MOTION_DOT>.46E-6</MEAN_MOTION_DOT><MEAN_MOTION_DDOT>0</MEAN_MOTION_DDOT></tleParameters></data></segment></body></omm>
<omm id="CCSDS_OMM_VERS" version="2.0">
<header><CREATION_DATE/><ORIGINATOR/></header><body><segment><metadata><OBJECT_NAME>ONEWEB-0555</OBJECT_NAME><OBJECT_ID>2023-043M</OBJECT_ID><CENTER_NAME>EARTH</CENTER_NAME><REF_FRAME>TEME</REF_FRAME><TIME_SYSTEM>UTC</TIME_SYSTEM><MEAN_ELEMENT_THEORY>SGP4</MEAN_ELEMENT_THEORY></metadata><data><meanElements><EPOCH>2025-04-22T11:42:50.225184</EPOCH><MEAN_MOTION>13.16597017</MEAN_MOTION><ECCENTRICITY>.0002193</ECCENTRICITY><INCLINATION>87.9031</INCLINATION><RA_OF_ASC_NODE>312.6357</RA_OF_ASC_NODE><ARG_OF_PERICENTER>98.1061</ARG_OF_PERICENTER><MEAN_ANOMALY>262.0318</MEAN_ANOMALY></meanElements><tleParameters><EPHEMERIS_TYPE>0</EPHEMERIS_TYPE><CLASSIFICATION_TYPE>U</CLASSIFICATION_TYPE><NORAD_CAT_ID>56057</NORAD_CAT_ID><ELEMENT_SET_NO>999</ELEMENT_SET_NO><REV_AT_EPOCH>10360</REV_AT_EPOCH><BSTAR>.31432E-4</BSTAR><MEAN_MOTION_DOT>.25E-6</MEAN_MOTION_DOT><MEAN_MOTION_DDOT>0</MEAN_MOTION_DDOT></tleParameters></data></segment></body></omm>
<omm id="CCSDS_OMM_VERS" version="2.0">
<header><CREATION_DATE/><ORIGINATOR/></header><body><segment><metadata><OBJECT_NAME>ONEWEB-0557</OBJECT_NAME><OBJECT_ID>2023-043N</OBJECT_ID><CENTER_NAME>EARTH</CENTER_NAME><REF_FRAME>TEME</REF_FRAME><TIME_SYSTEM>UTC</TIME_SYSTEM><MEAN_ELEMENT_THEORY>SGP4</MEAN_ELEMENT_THEORY></metadata><data><meanElements><EPOCH>2025-04-22T12:03:21.437280</EPOCH><MEAN_MOTION>13.16596332</MEAN_MOTION><ECCENTRICITY>.0002745</ECCENTRICITY><INCLINATION>87.9027</INCLINATION><RA_OF_ASC_NODE>312.6564</RA_OF_ASC_NODE><ARG_OF_PERICENTER>94.0825</ARG_OF_PERICENTER><MEAN_ANOMALY>266.0619</MEAN_ANOMALY></meanElements><tleParameters><EPHEMERIS_TYPE>0</EPHEMERIS_TYPE><CLASSIFICATION_TYPE>U</CLASSIFICATION_TYPE><NORAD_CAT_ID>56058</NORAD_CAT_ID><ELEMENT_SET_NO>999</ELEMENT_SET_NO><REV_AT_EPOCH>10360</REV_AT_EPOCH><BSTAR>-.13652E-3</BSTAR><MEAN_MOTION_DOT>-.39E-6</MEAN_MOTION_DOT><MEAN_MOTION_DDOT>0</MEAN_MOTION_DDOT></tleParameters></data></segment></body></omm>

</ndm>
