ONEWEB-0549             
1 56051U 23043F   25112.52015501  .00000158  00000+0  35009-3 0  9992
2 56051  87.9272 327.8780 0001510  82.6887 277.4418 13.21826217102655
ONEWEB-0550             
1 56052U 23043G   25112.50754208  .00000067  00000+0  13098-3 0  9998
2 56052  87.9275 327.8764 0001938  84.4563 275.6792 13.21825197102657
ONEWEB-0551             
1 56053U 23043H   25112.63426341  .00000171  00000+0  41919-3 0  9996
2 56053  87.9095 343.0487 0001583  76.8248 283.3058 13.15547385101104
ONEWEB-0552             
1 56054U 23043J   25112.50122933  .00000030  00000+0  42122-4 0  9995
2 56054  87.9279 327.8857 0001602  77.8848 282.2466 13.21826096102657
ONEWEB-0553             
1 56055U 23043K   25112.53877266  .00000118  00000+0  27399-3 0  9990
2 56055  87.9025 312.6310 0002095  97.0527 263.0842 13.16595956103623
ONEWEB-0554             
1 56056U 23043L   25112.52608251  .00000046  00000+0  87145-4 0  9992
2 56056  87.9026 312.6626 0002026  85.7912 274.3451 13.16595729103608
ONEWEB-0555             
1 56057U 23043M   25112.48808131  .00000025  00000+0  31432-4 0  9992
2 56057  87.9031 312.6357 0002193  98.1061 262.0318 13.16597017103602
ONEWEB-0557             
1 56058U 23043N   25112.50233145 -.00000039  00000+0 -13652-3 0  9993
2 56058  87.9027 312.6564 0002745  94.0825 266.0619 13.16596332103601
